CCSDS_OMM_VERS = 2.0
CREATION_DATE  = 
ORIGINATOR     = 

OBJECT_NAME    = TITAN 4B R/B
OBJECT_ID      = 2000-047B
CENTER_NAME    = EARTH
REF_FRAME      = TEME
TIME_SYSTEM    = UTC
MEAN_ELEMENT_THEORY = SGP/SGP4

EPOCH          = 2025-11-04T14:52:22.844640
MEAN_MOTION    = 15.08355382
ECCENTRICITY   = .00426327
INCLINATION    = 67.9921
RA_OF_ASC_NODE = 31.8827
ARG_OF_PERICENTER = 188.5932
MEAN_ANOMALY   = 171.4492

EPHEMERIS_TYPE = 0
CLASSIFICATION_TYPE = U
NORAD_CAT_ID   = 26474
ELEMENT_SET_NO = 999
REV_AT_EPOCH   = 37404
BSTAR          = .30347385E-3
MEAN_MOTION_DOT = .4692E-4
MEAN_MOTION_DDOT = 0

CCSDS_OMM_VERS = 2.0
CREATION_DATE  = 
ORIGINATOR     = 

OBJECT_NAME    = ENVISAT
OBJECT_ID      = 2002-009A
CENTER_NAME    = EARTH
REF_FRAME      = TEME
TIME_SYSTEM    = UTC
MEAN_ELEMENT_THEORY = SGP/SGP4

EPOCH          = 2025-11-04T11:06:31.646592
MEAN_MOTION    = 14.38977043
ECCENTRICITY   = .00013524
INCLINATION    = 98.3535
RA_OF_ASC_NODE = 260.1864
ARG_OF_PERICENTER = 84.0589
MEAN_ANOMALY   = 25.7838

EPHEMERIS_TYPE = 0
CLASSIFICATION_TYPE = U
NORAD_CAT_ID   = 27386
ELEMENT_SET_NO = 999
REV_AT_EPOCH   = 24116
BSTAR          = .64941661E-4
MEAN_MOTION_DOT = .158E-5
MEAN_MOTION_DDOT = 0

CCSDS_OMM_VERS = 2.0
CREATION_DATE  = 
ORIGINATOR     = 

OBJECT_NAME    = IDEFIX & ARIANE 42P R/B
OBJECT_ID      = 2002-021B
CENTER_NAME    = EARTH
REF_FRAME      = TEME
TIME_SYSTEM    = UTC
MEAN_ELEMENT_THEORY = SGP/SGP4

EPOCH          = 2025-11-04T13:03:40.710816
MEAN_MOTION    = 14.30906542
ECCENTRICITY   = .00113887
INCLINATION    = 98.5726
RA_OF_ASC_NODE = 243.7430
ARG_OF_PERICENTER = 190.7755
MEAN_ANOMALY   = 169.3186

EPHEMERIS_TYPE = 0
CLASSIFICATION_TYPE = U
NORAD_CAT_ID   = 27422
ELEMENT_SET_NO = 999
REV_AT_EPOCH   = 22612
BSTAR          = .1469114E-3
MEAN_MOTION_DOT = .342E-5
MEAN_MOTION_DDOT = 0

CCSDS_OMM_VERS = 2.0
CREATION_DATE  = 
ORIGINATOR     = 

OBJECT_NAME    = AQUA
OBJECT_ID      = 2002-022A
CENTER_NAME    = EARTH
REF_FRAME      = TEME
TIME_SYSTEM    = UTC
MEAN_ELEMENT_THEORY = SGP/SGP4

EPOCH          = 2025-11-04T15:37:59.059200
MEAN_MOTION    = 14.61666224
ECCENTRICITY   = .00011607
INCLINATION    = 98.3977
RA_OF_ASC_NODE = 268.9269
ARG_OF_PERICENTER = 49.2631
MEAN_ANOMALY   = 123.6967

EPHEMERIS_TYPE = 0
CLASSIFICATION_TYPE = U
NORAD_CAT_ID   = 27424
ELEMENT_SET_NO = 999
REV_AT_EPOCH   = 25046
BSTAR          = .26318367E-3
MEAN_MOTION_DOT = .1261E-4
MEAN_MOTION_DDOT = 0

CCSDS_OMM_VERS = 2.0
CREATION_DATE  = 
ORIGINATOR     = 

OBJECT_NAME    = CZ-4B R/B
OBJECT_ID      = 2002-024C
CENTER_NAME    = EARTH
REF_FRAME      = TEME
TIME_SYSTEM    = UTC
MEAN_ELEMENT_THEORY = SGP/SGP4

EPOCH          = 2025-11-04T14:36:05.551776
MEAN_MOTION    = 14.14515825
ECCENTRICITY   = .0050455
INCLINATION    = 98.9060
RA_OF_ASC_NODE = 357.5023
ARG_OF_PERICENTER = 19.3782
MEAN_ANOMALY   = 133.7811

EPHEMERIS_TYPE = 0
CLASSIFICATION_TYPE = U
NORAD_CAT_ID   = 27432
ELEMENT_SET_NO = 999
REV_AT_EPOCH   = 21155
BSTAR          = .543715E-4
MEAN_MOTION_DOT = .61E-6
MEAN_MOTION_DDOT = 0

CCSDS_OMM_VERS = 2.0
CREATION_DATE  = 
ORIGINATOR     = 

OBJECT_NAME    = MIDORI II (ADEOS-II)
OBJECT_ID      = 2002-056A
CENTER_NAME    = EARTH
REF_FRAME      = TEME
TIME_SYSTEM    = UTC
MEAN_ELEMENT_THEORY = SGP/SGP4

EPOCH          = 2025-11-04T15:07:27.832800
MEAN_MOTION    = 14.29164653
ECCENTRICITY   = .00016792
INCLINATION    = 98.7572
RA_OF_ASC_NODE = 261.3993
ARG_OF_PERICENTER = 45.7039
MEAN_ANOMALY   = 314.4280

EPHEMERIS_TYPE = 0
CLASSIFICATION_TYPE = U
NORAD_CAT_ID   = 27597
ELEMENT_SET_NO = 999
REV_AT_EPOCH   = 19243
BSTAR          = .14872137E-3
MEAN_MOTION_DOT = .332E-5
MEAN_MOTION_DDOT = 0

CCSDS_OMM_VERS = 2.0
CREATION_DATE  = 
ORIGINATOR     = 

OBJECT_NAME    = H-2A R/B
OBJECT_ID      = 2002-056E
CENTER_NAME    = EARTH
REF_FRAME      = TEME
TIME_SYSTEM    = UTC
MEAN_ELEMENT_THEORY = SGP/SGP4

EPOCH          = 2025-11-04T15:58:27.949728
MEAN_MOTION    = 14.33634078
ECCENTRICITY   = .00703453
INCLINATION    = 98.3005
RA_OF_ASC_NODE = 268.9509
ARG_OF_PERICENTER = 173.1864
MEAN_ANOMALY   = 359.4909

EPHEMERIS_TYPE = 0
CLASSIFICATION_TYPE = U
NORAD_CAT_ID   = 27601
ELEMENT_SET_NO = 999
REV_AT_EPOCH   = 19619
BSTAR          = .12641848E-3
MEAN_MOTION_DOT = .319E-5
MEAN_MOTION_DDOT = 0

CCSDS_OMM_VERS = 2.0
CREATION_DATE  = 
ORIGINATOR     = 

OBJECT_NAME    = CZ-4B R/B
OBJECT_ID      = 2003-049C
CENTER_NAME    = EARTH
REF_FRAME      = TEME
TIME_SYSTEM    = UTC
MEAN_ELEMENT_THEORY = SGP/SGP4

EPOCH          = 2025-11-04T10:13:10.631136
MEAN_MOTION    = 14.54853501
ECCENTRICITY   = .00471049
INCLINATION    = 98.6761
RA_OF_ASC_NODE = 293.5479
ARG_OF_PERICENTER = 253.7149
MEAN_ANOMALY   = 105.8863

EPHEMERIS_TYPE = 0
CLASSIFICATION_TYPE = U
NORAD_CAT_ID   = 28059
ELEMENT_SET_NO = 999
REV_AT_EPOCH   = 16838
BSTAR          = .12930245E-3
MEAN_MOTION_DOT = .511E-5
MEAN_MOTION_DDOT = 0

CCSDS_OMM_VERS = 2.0
CREATION_DATE  = 
ORIGINATOR     = 

OBJECT_NAME    = CZ-2C R/B
OBJECT_ID      = 2004-012C
CENTER_NAME    = EARTH
REF_FRAME      = TEME
TIME_SYSTEM    = UTC
MEAN_ELEMENT_THEORY = SGP/SGP4

EPOCH          = 2025-11-04T13:11:33.188352
MEAN_MOTION    = 15.52089083
ECCENTRICITY   = .00202396
INCLINATION    = 97.7499
RA_OF_ASC_NODE = 358.1079
ARG_OF_PERICENTER = 53.0902
MEAN_ANOMALY   = 307.2200

EPHEMERIS_TYPE = 0
CLASSIFICATION_TYPE = U
NORAD_CAT_ID   = 28222
ELEMENT_SET_NO = 999
REV_AT_EPOCH   = 18479
BSTAR          = .53915523E-3
MEAN_MOTION_DOT = .32799E-3
MEAN_MOTION_DDOT = 0

CCSDS_OMM_VERS = 2.0
CREATION_DATE  = 
ORIGINATOR     = 

OBJECT_NAME    = SL-16 R/B
OBJECT_ID      = 2004-021B
CENTER_NAME    = EARTH
REF_FRAME      = TEME
TIME_SYSTEM    = UTC
MEAN_ELEMENT_THEORY = SGP/SGP4

EPOCH          = 2025-11-04T12:09:56.960064
MEAN_MOTION    = 14.14569516
ECCENTRICITY   = .00069355
INCLINATION    = 70.9972
RA_OF_ASC_NODE = 135.1969
ARG_OF_PERICENTER = 240.7098
MEAN_ANOMALY   = 119.3332

EPHEMERIS_TYPE = 0
CLASSIFICATION_TYPE = U
NORAD_CAT_ID   = 28353
ELEMENT_SET_NO = 999
REV_AT_EPOCH   = 10513
BSTAR          = -.1538513E-4
MEAN_MOTION_DOT = -.77E-6
MEAN_MOTION_DDOT = 0

CCSDS_OMM_VERS = 2.0
CREATION_DATE  = 
ORIGINATOR     = 

OBJECT_NAME    = CZ-4B R/B
OBJECT_ID      = 2004-035C
CENTER_NAME    = EARTH
REF_FRAME      = TEME
TIME_SYSTEM    = UTC
MEAN_ELEMENT_THEORY = SGP/SGP4

EPOCH          = 2025-11-04T08:32:07.893888
MEAN_MOTION    = 15.26469537
ECCENTRICITY   = .00354896
INCLINATION    = 97.3665
RA_OF_ASC_NODE = 339.2265
ARG_OF_PERICENTER = 54.6702
MEAN_ANOMALY   = 305.7846

EPHEMERIS_TYPE = 0
CLASSIFICATION_TYPE = U
NORAD_CAT_ID   = 28415
ELEMENT_SET_NO = 999
REV_AT_EPOCH   = 16077
BSTAR          = .3456913E-3
MEAN_MOTION_DOT = .9109E-4
MEAN_MOTION_DDOT = 0

CCSDS_OMM_VERS = 2.0
CREATION_DATE  = 
ORIGINATOR     = 

OBJECT_NAME    = CZ-2C R/B
OBJECT_ID      = 2004-046B
CENTER_NAME    = EARTH
REF_FRAME      = TEME
TIME_SYSTEM    = UTC
MEAN_ELEMENT_THEORY = SGP/SGP4

EPOCH          = 2025-11-04T12:46:48.158976
MEAN_MOTION    = 14.26914676
ECCENTRICITY   = .01398046
INCLINATION    = 98.1951
RA_OF_ASC_NODE = 226.2927
ARG_OF_PERICENTER = 164.4959
MEAN_ANOMALY   = 196.0572

EPHEMERIS_TYPE = 0
CLASSIFICATION_TYPE = U
NORAD_CAT_ID   = 28480
ELEMENT_SET_NO = 999
REV_AT_EPOCH   = 9065
BSTAR          = .80475807E-4
MEAN_MOTION_DOT = .176E-5
MEAN_MOTION_DDOT = 0

